*******************************************************************************
JPL/HORIZONS                155 Scylla (A875 VE)           2023-Sep-04 11:04:42
Rec #:     155 (+COV) Soln.date: 2023-Aug-22_04:57:58   # obs: 3403 (1875-2023)
 
IAU76/J2000 helio. ecliptic osc. elements (au, days, deg., period=Julian yrs):
 
  EPOCH=  2457262.5 ! 2015-Aug-28.00 (TDB)         Residual RMS= .25121
   EC= .2779270937157158   QR= 1.989449293338224   TP= 2456516.3299355847
   OM= 41.00977062739175   W=  45.8892318086106    IN= 11.38942346492195
   A= 2.755191720979719    MA= 160.8104096781245   ADIST= 3.520934148621213
   PER= 4.57337            N= .215514421           ANGMOM= .027428428
   DAN= 2.13027            DDN= 3.15216            L= 86.32936549999999
   B= 8.151274300000001    MOID= 1.02400005        TP= 2013-Aug-11.8299355847
 
Asteroid physical parameters (km, seconds, rotational period in hours):
   GM= n.a.                RAD= 19.8025            ROTPER= 7.9597
   H= 11.19                G= .150                 B-V= .688
                           ALBEDO= .027            STYP= XFC

ASTEROID comments: 
1: soln ref.= JPL#62, OCC=0
2: source=ORB
*******************************************************************************


*******************************************************************************
Ephemeris / API_USER Mon Sep  4 11:04:42 2023 Pasadena, USA      / Horizons
*******************************************************************************
Target body name: 155 Scylla (A875 VE)            {source: JPL#62}
Center body name: Solar System Barycenter (0)     {source: DE441}
Center-site name: BODY CENTER
*******************************************************************************
Start time      : A.D. 2023-Aug-12 00:00:00.0000 TDB
Stop  time      : A.D. 2023-Aug-13 00:00:00.0000 TDB
Step-size       : 2880 minutes
*******************************************************************************
Center geodetic : 0.0, 0.0, 0.0                   {E-lon(deg),Lat(deg),Alt(km)}
Center cylindric: 0.0, 0.0, 0.0                   {E-lon(deg),Dxy(km),Dz(km)}
Center radii    : (undefined)
Small perturbers: Yes                             {source: SB441-N16}
Output units    : KM-S
Calendar mode   : Mixed Julian/Gregorian
Output type     : GEOMETRIC cartesian states
Output format   : 2 (position and velocity)
Reference frame : Ecliptic of J2000.0
*******************************************************************************
Initial IAU76/J2000 heliocentric ecliptic osculating elements (au, days, deg.):
  EPOCH=  2457262.5 ! 2015-Aug-28.00 (TDB)         Residual RMS= .25121        
   EC= .2779270937157158   QR= 1.989449293338224   TP= 2456516.3299355847      
   OM= 41.00977062739175   W=  45.8892318086106    IN= 11.38942346492195       
  Equivalent ICRF heliocentric cartesian coordinates (au, au/d):
   X=-8.973530162733806E-01  Y=-2.922244809400090E+00  Z=-1.693476623571202E+00
  VX= 7.365577663803267E-03 VY=-1.693529348738689E-03 VZ=-2.197684232024114E-03
Asteroid physical parameters (km, seconds, rotational period in hours):        
   GM= n.a.                RAD= 19.8025            ROTPER= 7.9597              
   H= 11.19                G= .150                 B-V= .688                   
                           ALBEDO= .027            STYP= XFC                   
*******************************************************************************
JDTDB
   X     Y     Z
   VX    VY    VZ
*******************************************************************************
$$SOE
2460168.500000000 = A.D. 2023-Aug-12 00:00:00.0000 TDB 
 X =-3.923568799543113E+08 Y =-3.173860242185984E+07 Z = 4.631286998563191E+07
 VX=-3.894442462552841E+00 VY=-1.818535641906179E+01 VZ=-2.265121945410682E+00
$$EOE
*******************************************************************************
 
TIME

  Barycentric Dynamical Time ("TDB" or T_eph) output was requested. This
continuous coordinate time is equivalent to the relativistic proper time
of a clock at rest in a reference frame co-moving with the solar system
barycenter but outside the system's gravity well. It is the independent
variable in the solar system relativistic equations of motion.

  TDB runs at a uniform rate of one SI second per second and is independent
of irregularities in Earth's rotation.
 
CALENDAR SYSTEM

  Mixed calendar mode was active such that calendar dates after AD 1582-Oct-15
(if any) are in the modern Gregorian system. Dates prior to 1582-Oct-5 (if any)
are in the Julian calendar system, which is automatically extended for dates
prior to its adoption on 45-Jan-1 BC.  The Julian calendar is useful for
matching historical dates. The Gregorian calendar more accurately corresponds
to the Earth's orbital motion and seasons. A "Gregorian-only" calendar mode is
available if such physical events are the primary interest.

REFERENCE FRAME AND COORDINATES

  Ecliptic at the standard reference epoch

    Reference epoch: J2000.0
    X-Y plane: adopted Earth orbital plane at the reference epoch
               Note: IAU76 obliquity of 84381.448 arcseconds wrt ICRF X-Y plane
    X-axis   : ICRF
    Z-axis   : perpendicular to the X-Y plane in the directional (+ or -) sense
               of Earth's north pole at the reference epoch.

  Symbol meaning:

    JDTDB    Julian Day Number, Barycentric Dynamical Time
      X      X-component of position vector (km)
      Y      Y-component of position vector (km)
      Z      Z-component of position vector (km)
      VX     X-component of velocity vector (km/sec)                           
      VY     Y-component of velocity vector (km/sec)                           
      VZ     Z-component of velocity vector (km/sec)                           

ABERRATIONS AND CORRECTIONS

 Geometric state vectors have NO corrections or aberrations applied.

Computations by ...

    Solar System Dynamics Group, Horizons On-Line Ephemeris System
    4800 Oak Grove Drive, Jet Propulsion Laboratory
    Pasadena, CA  91109   USA

    General site: https://ssd.jpl.nasa.gov/
    Mailing list: https://ssd.jpl.nasa.gov/email_list.html
    System news : https://ssd.jpl.nasa.gov/horizons/news.html
    User Guide  : https://ssd.jpl.nasa.gov/horizons/manual.html
    Connect     : browser        https://ssd.jpl.nasa.gov/horizons/app.html#/x
                  API            https://ssd-api.jpl.nasa.gov/doc/horizons.html
                  command-line   telnet ssd.jpl.nasa.gov 6775
                  e-mail/batch   https://ssd.jpl.nasa.gov/ftp/ssd/hrzn_batch.txt
                  scripts        https://ssd.jpl.nasa.gov/ftp/ssd/SCRIPTS
    Author      : Jon.D.Giorgini@jpl.nasa.gov
*******************************************************************************
